08-Mar-2025 00:30:34
1 44737U 19074AA  25066.91668981  .00265714  00000+0  94710-3 0  9991
2 44737  53.0448   4.2735 0006851 116.5148 245.8551 15.87637789294048
